start=new Date('2022-12-06T00:00:00.000Z').valueOf();
sats=[{"SEMIMAJOR_AXIS":"6925.287","MEAN_ANOMALY":"289.1165","ARG_OF_PERICENTER":"70.9991","BSTAR":"-0.00032654000000","MEAN_MOTION":"15.06419999","OBJECT_ID":"2020-006J","PERIOD":"95.591","OBJECT_NAME":"STARLINK-1148","PERIAPSIS":"546.084","MEAN_MOTION_DDOT":"0.0000000000000","REF_FRAME":"TEME","ECCENTRICITY":"0.00015430","NORAD_CAT_ID":"45052","MEAN_MOTION_DOT":"-0.00005145","MEAN_ELEMENT_THEORY":"SGP4","CENTER_NAME":"EARTH","CLASSIFICATION_TYPE":"U","RA_OF_ASC_NODE":"230.0004","TLE_LINE2":"2 45052  53.0532 230.0004 0001543  70.9991 289.1165 15.06419999157393","DECAY_DATE":null,"EPHEMERIS_TYPE":"0","INCLINATION":"53.0532","APOAPSIS":"548.221","EPOCH":"2022-12-05T09:45:12.858048","TLE_LINE1":"1 45052U 20006J   22339.40639882 -.00005145  00000-0 -32654-3 0  9993","REV_AT_EPOCH":"15739","COUNTRY_CODE":"US","GP_ID":"219624245","OBJECT_TYPE":"PAYLOAD","LAUNCH_DATE":"2020-01-29","RCS_SIZE":"LARGE","FILE":"3682465","ELEMENT_SET_NO":"999","SITE":"AFETR","TIME_SYSTEM":"UTC"},{"SITE":"AFETR","ELEMENT_SET_NO":"999","TIME_SYSTEM":"UTC","FILE":"3682465","RCS_SIZE":"LARGE","LAUNCH_DATE":"2020-01-29","GP_ID":"219624493","OBJECT_TYPE":"PAYLOAD","REV_AT_EPOCH":"15736","TLE_LINE1":"1 45053U 20006K   22339.84101767  .00020768  00000-0  96947-3 0  9999","COUNTRY_CODE":"US","EPOCH":"2022-12-05T20:11:03.926688","APOAPSIS":"508.984","EPHEMERIS_TYPE":"0","INCLINATION":"53.0010","DECAY_DATE":null,"TLE_LINE2":"2 45053  53.0010 207.6043 0003735 118.8022 241.3348 15.19811312157369","RA_OF_ASC_NODE":"207.6043","CLASSIFICATION_TYPE":"U","CENTER_NAME":"EARTH","NORAD_CAT_ID":"45053","MEAN_MOTION_DOT":"0.00020768","MEAN_ELEMENT_THEORY":"SGP4","ECCENTRICITY":"0.00037350","PERIOD":"94.749","MEAN_MOTION_DDOT":"0.0000000000000","REF_FRAME":"TEME","PERIAPSIS":"503.841","OBJECT_NAME":"STARLINK-1155","MEAN_MOTION":"15.19811312","BSTAR":"0.00096947000000","OBJECT_ID":"2020-006K","MEAN_ANOMALY":"241.3348","ARG_OF_PERICENTER":"118.8022","SEMIMAJOR_AXIS":"6884.547"},{"MEAN_ELEMENT_THEORY":"SGP4","MEAN_MOTION_DOT":"-0.00000280","NORAD_CAT_ID":"45054","ECCENTRICITY":"0.00016870","TLE_LINE2":"2 45054  53.0544 230.0283 0001687  57.3488 302.7664 15.06381653157397","RA_OF_ASC_NODE":"230.0283","CLASSIFICATION_TYPE":"U","CENTER_NAME":"EARTH","ARG_OF_PERICENTER":"57.3488","MEAN_ANOMALY":"302.7664","SEMIMAJOR_AXIS":"6925.405","REF_FRAME":"TEME","MEAN_MOTION_DDOT":"0.0000000000000","OBJECT_NAME":"STARLINK-1156","PERIAPSIS":"546.101","PERIOD":"95.593","OBJECT_ID":"2020-006L","MEAN_MOTION":"15.06381653","BSTAR":"0.00000011567000","RCS_SIZE":"LARGE","LAUNCH_DATE":"2020-01-29","OBJECT_TYPE":"PAYLOAD","GP_ID":"219623247","TIME_SYSTEM":"UTC","ELEMENT_SET_NO":"999","SITE":"AFETR","FILE":"3682465","APOAPSIS":"548.438","EPHEMERIS_TYPE":"0","INCLINATION":"53.0544","DECAY_DATE":null,"TLE_LINE1":"1 45054U 20006L   22339.40274331 -.00000280  00000-0  11567-6 0  9996","COUNTRY_CODE":"US","REV_AT_EPOCH":"15739","EPOCH":"2022-12-05T09:39:57.021984"},{"RA_OF_ASC_NODE":"229.9673","TLE_LINE2":"2 45057  53.0539 229.9673 0001819  59.3005 300.8163 15.06397186157063","CENTER_NAME":"EARTH","CLASSIFICATION_TYPE":"U","MEAN_ELEMENT_THEORY":"SGP4","MEAN_MOTION_DOT":"0.00001736","NORAD_CAT_ID":"45057","ECCENTRICITY":"0.00018190","OBJECT_NAME":"STARLINK-1159","PERIAPSIS":"545.962","MEAN_MOTION_DDOT":"0.0000000000000","REF_FRAME":"TEME","PERIOD":"95.592","OBJECT_ID":"2020-006P","BSTAR":"0.00013542000000","MEAN_MOTION":"15.06397186","ARG_OF_PERICENTER":"59.3005","MEAN_ANOMALY":"300.8163","SEMIMAJOR_AXIS":"6925.357","TIME_SYSTEM":"UTC","ELEMENT_SET_NO":"999","SITE":"AFETR","FILE":"3682099","LAUNCH_DATE":"2020-01-29","RCS_SIZE":"LARGE","OBJECT_TYPE":"PAYLOAD","GP_ID":"219590841","TLE_LINE1":"1 45057U 20006P   22339.41746647  .00001736  00000-0  13542-3 0  9992","REV_AT_EPOCH":"15706","COUNTRY_CODE":"US","EPOCH":"2022-12-05T10:01:09.103008","APOAPSIS":"548.482","DECAY_DATE":null,"EPHEMERIS_TYPE":"0","INCLINATION":"53.0539"},{"CLASSIFICATION_TYPE":"U","CENTER_NAME":"EARTH","TLE_LINE2":"2 45058  53.0548 230.0032 0001704  58.7170 301.3986 15.06405616157400","RA_OF_ASC_NODE":"230.0032","ECCENTRICITY":"0.00017040","NORAD_CAT_ID":"45058","MEAN_MOTION_DOT":"0.00002388","MEAN_ELEMENT_THEORY":"SGP4","MEAN_MOTION":"15.06405616","BSTAR":"0.00017913000000","OBJECT_ID":"2020-006Q","PERIOD":"95.592","REF_FRAME":"TEME","MEAN_MOTION_DDOT":"0.0000000000000","PERIAPSIS":"546.016","OBJECT_NAME":"STARLINK-1162","SEMIMAJOR_AXIS":"6925.331","MEAN_ANOMALY":"301.3986","ARG_OF_PERICENTER":"58.7170","FILE":"3682465","ELEMENT_SET_NO":"999","SITE":"AFETR","TIME_SYSTEM":"UTC","GP_ID":"219623745","OBJECT_TYPE":"PAYLOAD","RCS_SIZE":"LARGE","LAUNCH_DATE":"2020-01-29","EPOCH":"2022-12-05T09:50:32.080992","COUNTRY_CODE":"US","TLE_LINE1":"1 45058U 20006Q   22339.41009353  .00002388  00000-0  17913-3 0  9999","REV_AT_EPOCH":"15740","INCLINATION":"53.0548","EPHEMERIS_TYPE":"0","DECAY_DATE":null,"APOAPSIS":"548.376"},{"ECCENTRICITY":"0.00014780","MEAN_ELEMENT_THEORY":"SGP4","MEAN_MOTION_DOT":"-0.00000078","NORAD_CAT_ID":"45059","CLASSIFICATION_TYPE":"U","CENTER_NAME":"EARTH","TLE_LINE2":"2 45059  53.0543 228.7073 0001478  70.8461 289.2688 15.06398070157106","RA_OF_ASC_NODE":"228.7073","SEMIMAJOR_AXIS":"6925.354","ARG_OF_PERICENTER":"70.8461","MEAN_ANOMALY":"289.2688","OBJECT_ID":"2020-006R","MEAN_MOTION":"15.06398070","BSTAR":"0.00001364300000","MEAN_MOTION_DDOT":"0.0000000000000","REF_FRAME":"TEME","PERIAPSIS":"546.196","OBJECT_NAME":"STARLINK-1165","PERIOD":"95.592","OBJECT_TYPE":"PAYLOAD","GP_ID":"219623994","RCS_SIZE":"LARGE","LAUNCH_DATE":"2020-01-29","FILE":"3682465","TIME_SYSTEM":"UTC","ELEMENT_SET_NO":"999","SITE":"AFETR","INCLINATION":"53.0543","EPHEMERIS_TYPE":"0","DECAY_DATE":null,"APOAPSIS":"548.243","EPOCH":"2022-12-05T16:44:32.392032","TLE_LINE1":"1 45059U 20006R   22339.69759713 -.00000078  00000-0  13643-4 0  9994","REV_AT_EPOCH":"15710","COUNTRY_CODE":"US"},{"TIME_SYSTEM":"UTC","ELEMENT_SET_NO":"999","SITE":"AFETR","FILE":"3682465","RCS_SIZE":"LARGE","LAUNCH_DATE":"2020-01-29","OBJECT_TYPE":"PAYLOAD","GP_ID":"219622748","COUNTRY_CODE":"US","TLE_LINE1":"1 45060U 20006S   22339.42852533  .00002368  00000-0  17782-3 0  9991","REV_AT_EPOCH":"15740","EPOCH":"2022-12-05T10:17:04.588512","APOAPSIS":"548.388","INCLINATION":"53.0554","EPHEMERIS_TYPE":"0","DECAY_DATE":null,"TLE_LINE2":"2 45060  53.0554 229.9166 0001709  62.3965 297.7198 15.06403130157405","RA_OF_ASC_NODE":"229.9166","CLASSIFICATION_TYPE":"U","CENTER_NAME":"EARTH","MEAN_MOTION_DOT":"0.00002368","MEAN_ELEMENT_THEORY":"SGP4","NORAD_CAT_ID":"45060","ECCENTRICITY":"0.00017090","REF_FRAME":"TEME","MEAN_MOTION_DDOT":"0.0000000000000","PERIAPSIS":"546.020","OBJECT_NAME":"STARLINK-1166","PERIOD":"95.592","OBJECT_ID":"2020-006S","MEAN_MOTION":"15.06403130","BSTAR":"0.00017782000000","ARG_OF_PERICENTER":"62.3965","MEAN_ANOMALY":"297.7198","SEMIMAJOR_AXIS":"6925.339"},{"GP_ID":"219623498","OBJECT_TYPE":"PAYLOAD","RCS_SIZE":"LARGE","LAUNCH_DATE":"2020-01-29","FILE":"3682465","SITE":"AFETR","ELEMENT_SET_NO":"999","TIME_SYSTEM":"UTC","INCLINATION":"53.0544","EPHEMERIS_TYPE":"0","DECAY_DATE":null,"APOAPSIS":"548.171","EPOCH":"2022-12-05T20:00:55.753632","TLE_LINE1":"1 45061U 20006T   22339.83397863  .00001467  00000-0  11737-3 0  9990","REV_AT_EPOCH":"15712","COUNTRY_CODE":"US","ECCENTRICITY":"0.00013750","NORAD_CAT_ID":"45061","MEAN_ELEMENT_THEORY":"SGP4","MEAN_MOTION_DOT":"0.00001467","CLASSIFICATION_TYPE":"U","CENTER_NAME":"EARTH","TLE_LINE2":"2 45061  53.0544 228.0766 0001375  73.9179 286.1961 15.06398222157129","RA_OF_ASC_NODE":"228.0766","SEMIMAJOR_AXIS":"6925.354","MEAN_ANOMALY":"286.1961","ARG_OF_PERICENTER":"73.9179","MEAN_MOTION":"15.06398222","BSTAR":"0.00011737000000","OBJECT_ID":"2020-006T","PERIOD":"95.592","REF_FRAME":"TEME","MEAN_MOTION_DDOT":"0.0000000000000","PERIAPSIS":"546.267","OBJECT_NAME":"STARLINK-1169"},{"OBJECT_ID":"2020-006U","BSTAR":"0.00035578000000","MEAN_MOTION":"15.06386956","PERIAPSIS":"546.100","OBJECT_NAME":"STARLINK-1171","MEAN_MOTION_DDOT":"0.0000000000000","REF_FRAME":"TEME","PERIOD":"95.593","SEMIMAJOR_AXIS":"6925.389","ARG_OF_PERICENTER":"59.0625","MEAN_ANOMALY":"301.0527","CENTER_NAME":"EARTH","CLASSIFICATION_TYPE":"U","RA_OF_ASC_NODE":"228.7623","TLE_LINE2":"2 45062  53.0560 228.7623 0001666  59.0625 301.0527 15.06386956157442","ECCENTRICITY":"0.00016660","MEAN_ELEMENT_THEORY":"SGP4","MEAN_MOTION_DOT":"0.00005020","NORAD_CAT_ID":"45062","EPOCH":"2022-12-05T16:28:37.843104","TLE_LINE1":"1 45062U 20006U   22339.68654911  .00005020  00000-0  35578-3 0  9992","COUNTRY_CODE":"US","REV_AT_EPOCH":"15744","DECAY_DATE":null,"INCLINATION":"53.0560","EPHEMERIS_TYPE":"0","APOAPSIS":"548.407","FILE":"3682465","TIME_SYSTEM":"UTC","SITE":"AFETR","ELEMENT_SET_NO":"999","OBJECT_TYPE":"PAYLOAD","GP_ID":"219624246","LAUNCH_DATE":"2020-01-29","RCS_SIZE":"LARGE"},{"CENTER_NAME":"EARTH","CLASSIFICATION_TYPE":"U","RA_OF_ASC_NODE":"207.8084","TLE_LINE2":"2 45064  53.0538 207.8084 0001644  70.2377 289.8790 15.06395427157418","ECCENTRICITY":"0.00016440","MEAN_ELEMENT_THEORY":"SGP4","MEAN_MOTION_DOT":"0.00001396","NORAD_CAT_ID":"45064","OBJECT_ID":"2020-006W","BSTAR":"0.00011259000000","MEAN_MOTION":"15.06395427","PERIAPSIS":"546.089","OBJECT_NAME":"STARLINK-1133","MEAN_MOTION_DDOT":"0.0000000000000","REF_FRAME":"TEME","PERIOD":"95.592","SEMIMAJOR_AXIS":"6925.363","ARG_OF_PERICENTER":"70.2377","MEAN_ANOMALY":"289.8790","FILE":"3682465","TIME_SYSTEM":"UTC","ELEMENT_SET_NO":"999","SITE":"AFETR","OBJECT_TYPE":"PAYLOAD","GP_ID":"219624494","LAUNCH_DATE":"2020-01-29","RCS_SIZE":"LARGE","EPOCH":"2022-12-05T21:33:49.136832","TLE_LINE1":"1 45064U 20006W   22339.89848538  .00001396  00000-0  11259-3 0  9999","COUNTRY_CODE":"US","REV_AT_EPOCH":"15741","DECAY_DATE":null,"INCLINATION":"53.0538","EPHEMERIS_TYPE":"0","APOAPSIS":"548.366"}];
